[{"OBJECT_NAME":"STARLINK-4388","OBJECT_ID":"2022-105D","EPOCH":"2026-03-09T15:52:02.872704","MEAN_MOTION":15.05648779,"ECCENTRICITY":0.00023933,"INCLINATION":97.6022,"RA_OF_ASC_NODE":311.1928,"ARG_OF_PERICENTER":81.8615,"MEAN_ANOMALY":278.2883,"EPHEMERIS_TYPE":0,"CLASSIFICATION_TYPE":"U","NORAD_CAT_ID":53651,"ELEMENT_SET_NO":999,"REV_AT_EPOCH":19329,"BSTAR":5.6877377e-5,"MEAN_MOTION_DOT":7.6e-6,"MEAN_MOTION_DDOT":0},{"OBJECT_NAME":"KUIPER-00232","OBJECT_ID":"2025-301R","EPOCH":"2026-03-09T22:00:01.999584","MEAN_MOTION":15.06812029,"ECCENTRICITY":0.0002965,"INCLINATION":51.8873,"RA_OF_ASC_NODE":65.5535,"ARG_OF_PERICENTER":139.5556,"MEAN_ANOMALY":115.4886,"EPHEMERIS_TYPE":0,"CLASSIFICATION_TYPE":"U","NORAD_CAT_ID":67148,"ELEMENT_SET_NO":999,"REV_AT_EPOCH":493,"BSTAR":-0.072865786,"MEAN_MOTION_DOT":-0.01020247,"MEAN_MOTION_DDOT":0}]
